498P/LINEAR,e,14.4827,279.2301,179.0976,4.593225,0.1001215,0.57225046,41.6587,02/08.0/2026,2000,g 14.7,4.0
# From MPEC 2025-W75
499P/Catalina,e,24.5841,139.3030,2.5715,3.018292,0.1879586,0.69150768,64.0167,02/08.0/2026,2000,g 18.5,4.0
# From MPEC 2025-W75
500P/PANSTARRS,e,2.3015,111.5263,46.7160,3.416640,0.1560649,0.37599081,48.8452,02/08.0/2026,2000,g 16.0,4.0
# From MPEC 2025-W75
501P/Rankin,e,10.0476,139.7844,53.6842,2.227804,0.2964071,0.69861003,197.0072,02/08.0/2026,2000,g 21.5,4.0
# From MPEC 2025-XC7
502P/NEAT,e,11.3991,264.4812,37.7198,7.994442,0.0436035,0.47095891,8.1582,02/08.0/2026,2000,g  8.5,4.0
# From MPEC 2025-W75
503P/PANSTARRS,e,10.5746,268.5813,17.9397,3.657906,0.1408819,0.48130137,13.3077,02/08.0/2026,2000,g 15.0,4.0
# From MPEC 2025-W75
504P/WISE-PANSTARRS,e,8.8060,221.1187,308.5457,3.745389,0.1359749,0.40615110,41.4593,02/08.0/2026,2000,g 14.3,4.0
# From MPEC 2025-W75
505P/Palomar,e,11.3883,111.9417,143.9459,4.113486,0.1181378,0.31077551,2.5251,02/08.0/2026,2000,g 14.9,4.0
# From MPEC 2025-W75
506P/WISE-LINEAR,e,13.6572,325.5992,354.6571,5.586855,0.0746368,0.48205921,66.9179,02/08.0/2026,2000,g 12.7,4.0
# From MPEC 2025-W75
507P/Lemmon,e,17.0807,233.0702,107.7656,6.207603,0.0637262,0.56833089,74.2938,02/08.0/2026,2000,g 12.6,4.0
# From MPEC 2025-W75
508P/McNaught,e,31.7330,268.8289,338.8719,3.574678,0.1458306,0.56941495,30.8808,02/08.0/2026,2000,g 16.5,4.0
# From MPEC 2026-A90
509P/Catalina,e,8.6028,275.2105,180.0710,7.048858,0.0526655,0.47608876,357.9124,02/08.0/2026,2000,g 10.0,4.0
# From MPEC 2025-W75
510P/Boattini,e,8.2273,280.6650,86.6897,6.482290,0.0597188,0.24791953,347.2654,02/08.0/2026,2000,g  9.5,4.0
# From MPEC 2026-A24
511P/PANSTARRS,e,14.7852,271.0276,81.2406,3.010239,0.1887133,0.23723893,39.9923,02/08.0/2026,2000,g 17.1,4.0
# From MPEC 2025-W75
512P/PANSTARRS,e,12.5689,73.7402,308.7186,5.697527,0.0724727,0.15727071,338.2585,02/08.0/2026,2000,g 10.0,4.0
# From MPEC 2026-A90
513P/Broughton,e,21.3856,56.9970,304.8742,7.254973,0.0504371,0.55151432,12.0644,02/08.0/2026,2000,g 11.0,4.0
# From MPC107687
1I/`Oumuamua,h,09/09.4886/2017,122.6778,24.5997,241.6845,1.199252,0.255240,2000,23.0,2.0
# From MPEC 2025-R69
2I/Borisov,h,12/09.0572/2019,44.2624,307.8024,209.2911,3.345952,1.997724,2000,11.0,4.0
# From MPEC 2026-A90
3I/ATLAS,h,10/29.4826/2025,175.1129,322.1542,128.0064,6.139781,1.356498,2000,11.8,4.0
